NORAD_CAT_ID,OBJECT_NAME,OBJECT_TYPE,EPOCH,MEAN_MOTION,ECCENTRICITY,INCLINATION,RA_OF_ASC_NODE,ARG_OF_PERICENTER,MEAN_ANOMALY,BSTAR,MEAN_MOTION_DOT,MEAN_MOTION_DDOT,TLE_LINE0,TLE_LINE1,TLE_LINE2,SEMIMAJOR_AXIS,PERIOD,APOGEE,PERIGEE,DECAYED
56450.0,STARLINK-5970,PAYLOAD,2024-01-20 02:59:53,14.9832583,0.0002406,70.0017,310.0677,243.4767,116.6145,-1.3498e-05,-2.54e-06,0.0,0 STARLINK-5970,1 56450U 23064C   24020.12492670 -.00000254  00000-0 -13498-4 0  9996,2 56450  70.0017 310.0677 0002406 243.4767 116.6145 14.98325830 38835,6950.206,96.107,573.743,570.399,0.0
56450.0,STARLINK-5970,PAYLOAD,2024-01-20 06:12:09,14.98325666,0.0002398,70.0016,309.7308,244.9345,115.1565,-1.559e-05,-2.79e-06,0.0,0 STARLINK-5970,1 56450U 23064C   24020.25844727 -.00000279  00000-0 -15590-4 0  9996,2 56450  70.0016 309.7308 0002398 244.9345 115.1565 14.98325666 38497,6950.206,96.107,573.738,570.405,0.0
56450.0,STARLINK-5970,PAYLOAD,2024-01-20 22:13:30,14.98328046,0.0002514,70.0008,308.0452,254.2501,105.8381,-2.7565e-06,-1.26e-06,0.0,0 STARLINK-5970,1 56450U 23064C   24020.92604637 -.00000126  00000-0 -27565-5 0  9991,2 56450  70.0008 308.0452 0002514 254.2501 105.8381 14.98328046 38596,6950.199,96.107,573.811,570.317,0.0
56450.0,STARLINK-5970,PAYLOAD,2024-01-21 03:01:54,14.98328457,0.0002494,70.0009,307.5406,253.6185,106.47,3.3478e-06,-5.3e-07,0.0,0 STARLINK-5970,1 56450U 23064C   24021.12632616 -.00000053  00000-0  33478-5 0  9990,2 56450  70.0009 307.5406 0002494 253.6185 106.4700 14.98328457 38989,6950.198,96.107,573.796,570.329,0.0
56450.0,STARLINK-5970,PAYLOAD,2024-01-21 04:38:02,14.98329955,0.0002555,70.0006,307.3708,262.5285,97.5583,1.7637e-05,1.18e-06,0.0,0 STARLINK-5970,1 56450U 23064C   24021.19308520  .00000118  00000-0  17637-4 0  9990,2 56450  70.0006 307.3708 0002555 262.5285  97.5583 14.98329955 38632,6950.193,96.107,573.834,570.282,0.0
56450.0,STARLINK-5970,PAYLOAD,2024-01-21 22:15:31,14.9832882,0.0002638,70.0003,305.5201,263.2019,96.884,1.5704e-05,9.4e-07,0.0,0 STARLINK-5970,1 56450U 23064C   24021.92744573  .00000094  00000-0  15704-4 0  9999,2 56450  70.0003 305.5201 0002638 263.2019  96.8840 14.98328820 38742,6950.197,96.107,573.895,570.228,0.0
56450.0,STARLINK-5970,PAYLOAD,2024-01-22 03:03:55,14.98330629,0.0002614,70.0004,305.0154,262.8615,97.2247,3.6451e-05,3.42e-06,0.0,0 STARLINK-5970,1 56450U 23064C   24022.12772404  .00000342  00000-0  36451-4 0  9994,2 56450  70.0004 305.0154 0002614 262.8615  97.2247 14.98330629 39136,6950.191,96.107,573.873,570.239,0.0
56450.0,STARLINK-5970,PAYLOAD,2024-01-22 04:40:03,14.98331973,0.0002607,70.0005,304.8474,262.4439,97.6424,4.9944e-05,5.03e-06,0.0,0 STARLINK-5970,1 56450U 23064C   24022.19448281  .00000503  00000-0  49944-4 0  9994,2 56450  70.0005 304.8474 0002607 262.4439  97.6424 14.98331973 38785,6950.187,96.107,573.864,570.24,0.0
56450.0,STARLINK-5970,PAYLOAD,2024-01-22 22:17:32,14.98326651,0.0002723,70.0006,302.9984,249.8411,110.2455,-6.8561e-05,-9.11e-06,0.0,0 STARLINK-5970,1 56450U 23064C   24022.92884896 -.00000911  00000-0 -68561-4 0  9992,2 56450  70.0006 302.9984 0002723 249.8411 110.2455 14.98326651 38894,6950.203,96.107,573.961,570.176,0.0
56450.0,STARLINK-5970,PAYLOAD,2024-01-23 03:05:58,14.98312522,0.0003182,70.0001,302.4911,270.1911,89.8883,-0.00020222,-2.504e-05,0.0,0 STARLINK-5970,1 56450U 23064C   24023.12914397 -.00002504  00000-0 -20222-3 0  9996,2 56450  70.0001 302.4911 0003182 270.1911  89.8883 14.98312522 39288,6950.247,96.108,574.324,569.9,0.0
56450.0,STARLINK-5970,PAYLOAD,2024-01-23 04:42:07,14.98296933,0.0002696,70.0002,302.3231,270.3691,89.7159,-0.00036226,-4.409e-05,0.0,0 STARLINK-5970,1 56450U 23064C   24023.19591991 -.00004409  00000-0 -36226-3 0  9991,2 56450  70.0002 302.3231 0002696 270.3691  89.7159 14.98296933 39292,6950.295,96.109,574.034,570.286,0.0
56450.0,STARLINK-5970,PAYLOAD,2024-01-23 22:19:34,14.98313152,0.0002973,70.0007,300.4732,272.3387,87.7431,-0.00019754,-2.448e-05,0.0,0 STARLINK-5970,1 56450U 23064C   24023.93025778 -.00002448  00000-0 -19754-3 0  9996,2 56450  70.0007 300.4732 0002973 272.3387  87.7431 14.98313152 39041,6950.245,96.108,574.176,570.044,0.0
56450.0,STARLINK-5970,PAYLOAD,2024-01-24 03:07:58,14.98314759,0.0002421,70.001,299.9693,252.3196,107.7699,-0.00017928,-2.23e-05,0.0,0 STARLINK-5970,1 56450U 23064C   24024.13053806 -.00002230  00000-0 -17928-3 0  9992,2 56450  70.0010 299.9693 0002421 252.3196 107.7699 14.98314759 39433,6950.24,96.108,573.788,570.422,0.0
56450.0,STARLINK-5970,PAYLOAD,2024-01-24 04:44:06,14.98315081,0.0002567,70.0007,299.8003,251.8324,108.2556,-0.00017854,-2.222e-05,0.0,0 STARLINK-5970,1 56450U 23064C   24024.19729800 -.00002222  00000-0 -17854-3 0  9991,2 56450  70.0007 299.8003 0002567 251.8324 108.2556 14.98315081 39089,6950.239,96.108,573.888,570.32,0.0
56450.0,STARLINK-5970,PAYLOAD,2024-01-24 20:45:26,14.98318205,0.0003247,69.9994,298.1116,285.4703,74.6097,0.00011523,1.282e-05,0.0,0 STARLINK-5970,1 56450U 23064C   24024.86488963  .00001282  00000-0  11523-3 0  9997,2 56450  69.9994 298.1116 0003247 285.4703  74.6097 14.98318205 39546,6950.229,96.108,574.351,569.838,0.0
56450.0,STARLINK-5970,PAYLOAD,2024-01-24 22:21:34,14.98317736,0.0003524,69.9995,297.9443,288.1406,71.9369,0.00012739,1.427e-05,0.0,0 STARLINK-5970,1 56450U 23064C   24024.93165004  .00001427  00000-0  12739-3 0  9994,2 56450  69.9995 297.9443 0003524 288.1406  71.9369 14.98317736 39196,6950.231,96.108,574.545,569.647,0.0
56450.0,STARLINK-5970,PAYLOAD,2024-01-25 03:09:58,14.98327474,0.000291,69.9998,297.4397,271.9101,88.1725,0.0001927,2.207e-05,0.0,0 STARLINK-5970,1 56450U 23064C   24025.13192172  .00002207  00000-0  19270-3 0  9997,2 56450  69.9998 297.4397 0002910 271.9101  88.1725 14.98327474 39581,6950.201,96.107,574.088,570.043,0.0
56450.0,STARLINK-5970,PAYLOAD,2024-01-25 22:23:34,14.98354423,0.0002799,70.0004,295.421,257.1642,102.9204,-0.00048993,-5.937e-05,0.0,0 STARLINK-5970,1 56450U 23064C   24025.93304184 -.00005937  00000-0 -48993-3 0  9992,2 56450  70.0004 295.4210 0002799 257.1642 102.9204 14.98354423 39340,6950.117,96.105,573.928,570.037,0.0
56450.0,STARLINK-5970,PAYLOAD,2024-01-26 03:11:58,14.98352017,0.0002792,70.0004,294.9164,255.9532,104.1316,-0.00045516,-5.523e-05,0.0,0 STARLINK-5970,1 56450U 23064C   24026.13331997 -.00005523  00000-0 -45516-3 0  9996,2 56450  70.0004 294.9164 0002792 255.9532 104.1316 14.98352017 39737,6950.125,96.106,573.93,570.049,0.0
56450.0,STARLINK-5970,PAYLOAD,2024-01-26 19:13:19,14.98332206,0.0002447,70.0003,293.233,254.709,105.3798,2.0785e-06,-6.8e-07,0.0,0 STARLINK-5970,1 56450U 23064C   24026.80092344 -.00000068  00000-0  20785-5 0  9991,2 56450  70.0003 293.2330 0002447 254.7090 105.3798 14.98332206 39832,6950.186,96.107,573.752,570.35,0.0
56450.0,STARLINK-5970,PAYLOAD,2024-01-27 01:37:51,14.98333088,0.0002439,70.0004,292.56,254.3247,105.7643,1.3031e-05,6.3e-07,0.0,0 STARLINK-5970,1 56450U 23064C   24027.06796218  .00000063  00000-0  13031-4 0  9990,2 56450  70.0004 292.5600 0002439 254.3247 105.7643 14.98333088 39513,6950.183,96.107,573.743,570.353,0.0
56450.0,STARLINK-5970,PAYLOAD,2024-01-27 19:15:20,14.9833087,0.0002372,70.0006,290.709,255.8111,104.2785,-6.996e-06,-1.76e-06,0.0,0 STARLINK-5970,1 56450U 23064C   24027.80232355 -.00000176  00000-0 -69960-5 0  9999,2 56450  70.0006 290.7090 0002372 255.8111 104.2785 14.98330870 39988,6950.19,96.107,573.704,570.407,0.0
56450.0,STARLINK-5970,PAYLOAD,2024-01-27 22:27:36,14.98328404,0.0002421,70.0004,290.3722,254.8914,105.1978,2.4869e-05,2.04e-06,0.0,0 STARLINK-5970,1 56450U 23064C   24027.93584384  .00000204  00000-0  24869-4 0  9993,2 56450  70.0004 290.3722 0002421 254.8914 105.1978 14.98328404 39646,6950.198,96.107,573.745,570.38,0.0
56450.0,STARLINK-5970,PAYLOAD,2024-01-28 03:16:00,14.98329784,0.0002403,70.0004,289.8674,254.0273,106.0621,3.72e-05,3.51e-06,0.0,0 STARLINK-5970,1 56450U 23064C   24028.13612259  .00000351  00000-0  37200-4 0  9995,2 56450  70.0004 289.8674 0002403 254.0273 106.0621 14.98329784 39675,6950.194,96.107,573.729,570.388,0.0
56450.0,STARLINK-5970,PAYLOAD,2024-01-28 19:17:21,14.98331867,0.0002311,70.0005,288.1848,251.2639,108.8269,-3.7156e-05,-5.36e-06,0.0,0 STARLINK-5970,1 56450U 23064C   24028.80372312 -.00000536  00000-0 -37156-4 0  9999,2 56450  70.0005 288.1848 0002311 251.2639 108.8269 14.98331867 40130,6950.187,96.107,573.658,570.446,0.0
56450.0,STARLINK-5970,PAYLOAD,2024-01-28 22:29:37,14.9833115,0.0002339,70.0004,287.8477,251.0147,109.0759,-4.6759e-05,-6.51e-06,0.0,0 STARLINK-5970,1 56450U 23064C   24028.93724359 -.00000651  00000-0 -46759-4 0  9992,2 56450  70.0004 287.8477 0002339 251.0147 109.0759 14.98331150 39797,6950.189,96.107,573.68,570.429,0.0
56450.0,STARLINK-5970,PAYLOAD,2024-01-29 16:07:06,14.9833437,0.0002484,69.9995,285.9948,257.8699,102.2182,3.9292e-05,3.76e-06,0.0,0 STARLINK-5970,1 56450U 23064C   24029.67159784  .00000376  00000-0  39292-4 0  9994,2 56450  69.9995 285.9948 0002484 257.8699 102.2182 14.98334370 39907,6950.179,96.107,573.771,570.318,0.0
56450.0,STARLINK-5970,PAYLOAD,2024-01-30 03:20:02,14.98335526,0.0002459,69.9995,284.8165,259.634,100.4542,4.8613e-05,4.87e-06,0.0,0 STARLINK-5970,1 56450U 23064C   24030.13891550  .00000487  00000-0  48613-4 0  9991,2 56450  69.9995 284.8165 0002459 259.6340 100.4542 14.98335526 40334,6950.176,96.107,573.75,570.332,0.0
56450.0,STARLINK-5970,PAYLOAD,2024-01-30 19:21:23,14.98328385,0.0002414,69.9994,283.1331,254.1551,105.9342,1.0155e-05,2.8e-07,0.0,0 STARLINK-5970,1 56450U 23064C   24030.80651973  .00000028  00000-0  10155-4 0  9999,2 56450  69.9994 283.1331 0002414 254.1551 105.9342 14.98328385 40439,6950.198,96.107,573.741,570.385,0.0
56450.0,STARLINK-5970,PAYLOAD,2024-01-30 22:33:39,14.98328176,0.0002421,69.9994,282.7962,252.0535,108.036,8.479e-06,8e-08,0.0,0 STARLINK-5970,1 56450U 23064C   24030.94003978  .00000008  00000-0  84790-5 0  9995,2 56450  69.9994 282.7962 0002421 252.0535 108.0360 14.98328176 40095,6950.199,96.107,573.746,570.381,0.0
